IRIDIUM 116             
1 43072U 17083C   24364.09045203  .00000046  00000+0  94377-5 0  9991
2 43072  86.3986 185.6396 0002011  96.6075 263.5349 14.34217988367479
IRIDIUM 130             
1 43073U 17083D   24364.26804382  .00000076  00000+0  20131-4 0  9991
2 43073  86.3995 185.7884 0001803  93.1819 266.9583 14.34218360367448
IRIDIUM 151             
1 43074U 17083E   24363.75428815  .00000256  00000+0  84362-4 0  9994
2 43074  86.3990 185.8257 0002131  91.9342 268.2098 14.34217346367394
IRIDIUM 134             
1 43075U 17083F   24364.49003336  .00000029  00000+0  31242-5 0  9992
2 43075  86.3989 185.5191 0001934  94.1959 265.9458 14.34217661367468
IRIDIUM 137             
1 43076U 17083G   24363.80503586  .00000055  00000+0  12713-4 0  9999
2 43076  86.3992 185.8868 0002378 100.9257 259.2207 14.34217927367437
IRIDIUM 141             
1 43077U 17083H   24363.51961867  .00000033  00000+0  48137-5 0  9994
2 43077  86.3986 185.8673 0001896  81.1472 278.9938 14.34217753367399
IRIDIUM 153             
1 43078U 17083J   24363.40201898  .00000782  00000+0  27210-3 0  9992
2 43078  86.3995 154.4432 0001931  74.2536 285.8873 14.34213390368488
IRIDIUM 131             
1 43079U 17083K   24363.78600180  .00000121  00000+0  36085-4 0  9999
2 43079  86.3993 185.9062 0002102  86.6097 273.5340 14.34218313367364
